COSMOS 2251 DEB         
1 34877U 93036ACQ 17345.90445012  .00002768  00000-0  18286-3 0  9996
2 34877  73.9407  61.9951 0092672 281.2661  77.8124 15.04509077472767
